[{"OBJECT_NAME":"STARLINK-35784","OBJECT_ID":"2025-298U","EPOCH":"2026-03-09T22:31:12.185472","MEAN_MOTION":14.99157284,"ECCENTRICITY":0.00025226,"INCLINATION":70.0036,"RA_OF_ASC_NODE":13.8718,"ARG_OF_PERICENTER":255.9225,"MEAN_ANOMALY":104.1654,"EPHEMERIS_TYPE":0,"CLASSIFICATION_TYPE":"U","NORAD_CAT_ID":67093,"ELEMENT_SET_NO":999,"REV_AT_EPOCH":1325,"BSTAR":0.00048528132,"MEAN_MOTION_DOT":5.827e-5,"MEAN_MOTION_DDOT":0},{"OBJECT_NAME":"BREEZE-KM R\/B","OBJECT_ID":"2018-039B","EPOCH":"2026-03-09T22:26:32.085312","MEAN_MOTION":15.28213901,"ECCENTRICITY":0.01527689,"INCLINATION":98.674,"RA_OF_ASC_NODE":182.4943,"ARG_OF_PERICENTER":174.8677,"MEAN_ANOMALY":185.417,"EPHEMERIS_TYPE":0,"CLASSIFICATION_TYPE":"U","NORAD_CAT_ID":43438,"ELEMENT_SET_NO":999,"REV_AT_EPOCH":43229,"BSTAR":0.00046949249,"MEAN_MOTION_DOT":0.00018266,"MEAN_MOTION_DDOT":0}]
